{"type": "FeatureCollection", "features": [ {"type": "Feature", "properties": {"norad_id": 51444, "name": "CSG-2", "group": "resource", "lat": 48.124957534800494, "lon": -7.928286683952802, "alt_km": 617.4949737637435, "timestamp": "2025-12-07T18:50:16.382157+00:00", "meta": {"OBJECT_NAME": "CSG-2", "OBJECT_ID": "2022-008A", "EPOCH": "2025-12-07T06:54:22.896000", "MEAN_MOTION": 14.82155172, "ECCENTRICITY": 0.00014908, "INCLINATION": 97.8813, "RA_OF_ASC_NODE": 162.6932, "ARG_OF_PERICENTER": 88.3618, "MEAN_ANOMALY": 271.7766, "EPHEMERIS_TYPE": 0, "CLASSIFICATION_TYPE": "U", "NORAD_CAT_ID": 51444, "ELEMENT_SET_NO": 999, "REV_AT_EPOCH": 20816, "BSTAR": 0.00011881479, "MEAN_MOTION_DOT": 8.94e-06, "MEAN_MOTION_DDOT": 0}, "tle": {"line1": "1 51444U 22008A   25341.28776500  .00000894  00000+0  11881-3 0  9992", "line2": "2 51444  97.8813 162.6932 0001490  88.3618 271.7766 14.82155172208162"}}, "geometry": {"type": "Point", "coordinates": [-7.928286683952802, 48.124957534800494]}}, {"type": "Feature", "properties": {"norad_id": 52912, "name": "GAOFEN-12 03", "group": "resource", "lat": 81.47041590830707, "lon": 116.13805819203455, "alt_km": 621.689369084911, "timestamp": "2025-12-07T18:50:16.382167+00:00", "meta": {"OBJECT_NAME": "GAOFEN-12 03", "OBJECT_ID": "2022-069A", "EPOCH": "2025-12-07T05:25:59.992320", "MEAN_MOTION": 14.79589489, "ECCENTRICITY": 0.0002297, "INCLINATION": 97.8488, "RA_OF_ASC_NODE": 228.7026, "ARG_OF_PERICENTER": 71.7844, "MEAN_ANOMALY": 288.3618, "EPHEMERIS_TYPE": 0, "CLASSIFICATION_TYPE": "U", "NORAD_CAT_ID": 52912, "ELEMENT_SET_NO": 999, "REV_AT_EPOCH": 18622, "BSTAR": 0.00030215231, "MEAN_MOTION_DOT": 2.213e-05, "MEAN_MOTION_DDOT": 0}, "tle": {"line1": "1 52912U 22069A   25341.22638880  .00002213  00000+0  30215-3 0  9991", "line2": "2 52912  97.8488 228.7026 0002297  71.7844 288.3618 14.79589489186222"}}, "geometry": {"type": "Point", "coordinates": [116.13805819203455, 81.47041590830707]}}, {"type": "Feature", "properties": {"norad_id": 54754, "name": "SWOT", "group": "resource", "lat": 40.331855102017435, "lon": -55.565107609118066, "alt_km": 889.8107172327254, "timestamp": "2025-12-07T18:50:16.382177+00:00", "meta": {"OBJECT_NAME": "SWOT", "OBJECT_ID": "2022-173A", "EPOCH": "2025-12-07T06:38:09.784896", "MEAN_MOTION": 14.00173483, "ECCENTRICITY": 3.508e-05, "INCLINATION": 77.6101, "RA_OF_ASC_NODE": 294.3649, "ARG_OF_PERICENTER": 127.8236, "MEAN_ANOMALY": 232.2947, "EPHEMERIS_TYPE": 0, "CLASSIFICATION_TYPE": "U", "NORAD_CAT_ID": 54754, "ELEMENT_SET_NO": 999, "REV_AT_EPOCH": 15229, "BSTAR": 0.00011614086, "MEAN_MOTION_DOT": 1.69e-06, "MEAN_MOTION_DDOT": 0}, "tle": {"line1": "1 54754U 22173A   25341.27650214  .00000169  00000+0  11614-3 0  9993", "line2": "2 54754  77.6101 294.3649 0000350 127.8236 232.2947 14.00173483152292"}}, "geometry": {"type": "Point", "coordinates": [-55.565107609118066, 40.331855102017435]}}, {"type": "Feature", "properties": {"norad_id": 57654, "name": "GAOFEN-12 04", "group": "resource", "lat": -78.27364653917688, "lon": 35.55066686650127, "alt_km": 638.6492923122105, "timestamp": "2025-12-07T18:50:16.382187+00:00", "meta": {"OBJECT_NAME": "GAOFEN-12 04", "OBJECT_ID": "2023-123A", "EPOCH": "2025-12-07T06:17:59.045280", "MEAN_MOTION": 14.79675777, "ECCENTRICITY": 0.00014041, "INCLINATION": 97.9121, "RA_OF_ASC_NODE": 257.1028, "ARG_OF_PERICENTER": 72.7871, "MEAN_ANOMALY": 287.3494, "EPHEMERIS_TYPE": 0, "CLASSIFICATION_TYPE": "U", "NORAD_CAT_ID": 57654, "ELEMENT_SET_NO": 999, "REV_AT_EPOCH": 12424, "BSTAR": 0.00036908693, "MEAN_MOTION_DOT": 2.719e-05, "MEAN_MOTION_DDOT": 0}, "tle": {"line1": "1 57654U 23123A   25341.26248895  .00002719  00000+0  36909-3 0  9995", "line2": "2 57654  97.9121 257.1028 0001404  72.7871 287.3494 14.79675777124244"}}, "geometry": {"type": "Point", "coordinates": [35.55066686650127, -78.27364653917688]}}, {"type": "Feature", "properties": {"norad_id": 59065, "name": "PARS 1", "group": "resource", "lat": -70.57595747019458, "lon": -25.56231236891919, "alt_km": 459.0691358644781, "timestamp": "2025-12-07T18:50:16.382197+00:00", "meta": {"OBJECT_NAME": "PARS 1", "OBJECT_ID": "2024-039Q", "EPOCH": "2025-12-07T06:40:52.740480", "MEAN_MOTION": 15.40795313, "ECCENTRICITY": 0.00126906, "INCLINATION": 97.4633, "RA_OF_ASC_NODE": 312.0961, "ARG_OF_PERICENTER": 88.2971, "MEAN_ANOMALY": 271.9729, "EPHEMERIS_TYPE": 0, "CLASSIFICATION_TYPE": "U", "NORAD_CAT_ID": 59065, "ELEMENT_SET_NO": 999, "REV_AT_EPOCH": 9904, "BSTAR": 0.00042733494, "MEAN_MOTION_DOT": 0.00017481, "MEAN_MOTION_DDOT": 0}, "tle": {"line1": "1 59065U 24039Q   25341.27838820  .00017481  00000+0  42733-3 0  9998", "line2": "2 59065  97.4633 312.0961 0012690  88.2971 271.9729 15.40795313 99041"}}, "geometry": {"type": "Point", "coordinates": [-25.56231236891919, -70.57595747019458]}}, {"type": "Feature", "properties": {"norad_id": 59371, "name": "RESURS-P 4", "group": "resource", "lat": -47.16624972869016, "lon": 100.31923619641576, "alt_km": 477.943806222499, "timestamp": "2025-12-07T18:50:16.382207+00:00", "meta": {"OBJECT_NAME": "RESURS-P 4", "OBJECT_ID": "2024-061A", "EPOCH": "2025-12-07T06:52:28.416000", "MEAN_MOTION": 15.32021326, "ECCENTRICITY": 0.00019139, "INCLINATION": 97.2542, "RA_OF_ASC_NODE": 287.7282, "ARG_OF_PERICENTER": 53.3697, "MEAN_ANOMALY": 306.7721, "EPHEMERIS_TYPE": 0, "CLASSIFICATION_TYPE": "U", "NORAD_CAT_ID": 59371, "ELEMENT_SET_NO": 999, "REV_AT_EPOCH": 9437, "BSTAR": 0.00020886358, "MEAN_MOTION_DOT": 6.381e-05, "MEAN_MOTION_DDOT": 0}, "tle": {"line1": "1 59371U 24061A   25341.28644000  .00006381  00000+0  20886-3 0  9991", "line2": "2 59371  97.2542 287.7282 0001913  53.3697 306.7721 15.32021326 94373"}}, "geometry": {"type": "Point", "coordinates": [100.31923619641576, -47.16624972869016]}}, {"type": "Feature", "properties": {"norad_id": 59625, "name": "LEGION 1", "group": "resource", "lat": 10.391902192532596, "lon": 55.077675530226514, "alt_km": 515.7808337895376, "timestamp": "2025-12-07T18:50:16.382216+00:00", "meta": {"OBJECT_NAME": "LEGION 1", "OBJECT_ID": "2024-081A", "EPOCH": "2025-12-07T06:07:20.060256", "MEAN_MOTION": 15.16398789, "ECCENTRICITY": 0.00043686, "INCLINATION": 97.5217, "RA_OF_ASC_NODE": 55.9409, "ARG_OF_PERICENTER": 340.5658, "MEAN_ANOMALY": 19.5407, "EPHEMERIS_TYPE": 0, "CLASSIFICATION_TYPE": "U", "NORAD_CAT_ID": 59625, "ELEMENT_SET_NO": 999, "REV_AT_EPOCH": 8844, "BSTAR": 0.00039567456, "MEAN_MOTION_DOT": 7.623e-05, "MEAN_MOTION_DDOT": 0}, "tle": {"line1": "1 59625U 24081A   25341.25509329  .00007623  00000+0  39567-3 0  9992", "line2": "2 59625  97.5217  55.9409 0004368 340.5658  19.5407 15.16398789 88441"}}, "geometry": {"type": "Point", "coordinates": [55.077675530226514, 10.391902192532596]}}, {"type": "Feature", "properties": {"norad_id": 59626, "name": "LEGION 2", "group": "resource", "lat": -10.095415716110129, "lon": -124.79509814301143, "alt_km": 523.2944215774742, "timestamp": "2025-12-07T18:50:16.382227+00:00", "meta": {"OBJECT_NAME": "LEGION 2", "OBJECT_ID": "2024-081B", "EPOCH": "2025-12-07T06:54:57.847392", "MEAN_MOTION": 15.16411233, "ECCENTRICITY": 0.00059801, "INCLINATION": 97.5222, "RA_OF_ASC_NODE": 56.0605, "ARG_OF_PERICENTER": 316.1479, "MEAN_ANOMALY": 43.9279, "EPHEMERIS_TYPE": 0, "CLASSIFICATION_TYPE": "U", "NORAD_CAT_ID": 59626, "ELEMENT_SET_NO": 999, "REV_AT_EPOCH": 8845, "BSTAR": 0.0004251226, "MEAN_MOTION_DOT": 8.2e-05, "MEAN_MOTION_DDOT": 0}, "tle": {"line1": "1 59626U 24081B   25341.28816953  .00008200  00000+0  42512-3 0  9996", "line2": "2 59626  97.5222  56.0605 0005980 316.1479  43.9279 15.16411233 88458"}}, "geometry": {"type": "Point", "coordinates": [-124.79509814301143, -10.095415716110129]}}, {"type": "Feature", "properties": {"norad_id": 60182, "name": "ALOS-4 (DAICHI-4)", "group": "resource", "lat": 33.708353175233285, "lon": -97.96625213761263, "alt_km": 628.2309417647093, "timestamp": "2025-12-07T18:50:16.382237+00:00", "meta": {"OBJECT_NAME": "ALOS-4 (DAICHI-4)", "OBJECT_ID": "2024-123A", "EPOCH": "2025-12-07T06:49:07.355424", "MEAN_MOTION": 14.79468397, "ECCENTRICITY": 0.00013754, "INCLINATION": 97.9231, "RA_OF_ASC_NODE": 76.2092, "ARG_OF_PERICENTER": 100.7556, "MEAN_ANOMALY": 259.3811, "EPHEMERIS_TYPE": 0, "CLASSIFICATION_TYPE": "U", "NORAD_CAT_ID": 60182, "ELEMENT_SET_NO": 999, "REV_AT_EPOCH": 7750, "BSTAR": 0.00053804766, "MEAN_MOTION_DOT": 3.969e-05, "MEAN_MOTION_DDOT": 0}, "tle": {"line1": "1 60182U 24123A   25341.28411291  .00003969  00000+0  53805-3 0  9992", "line2": "2 60182  97.9231  76.2092 0001375 100.7556 259.3811 14.79468397 77502"}}, "geometry": {"type": "Point", "coordinates": [-97.96625213761263, 33.708353175233285]}}, {"type": "Feature", "properties": {"norad_id": 60452, "name": "LEGION 3", "group": "resource", "lat": -18.31537677813536, "lon": 176.03410922155894, "alt_km": 512.871939608578, "timestamp": "2025-12-07T18:50:16.382266+00:00", "meta": {"OBJECT_NAME": "LEGION 3", "OBJECT_ID": "2024-146A", "EPOCH": "2025-12-07T06:51:34.902432", "MEAN_MOTION": 15.1567533, "ECCENTRICITY": 0.00142465, "INCLINATION": 45.0028, "RA_OF_ASC_NODE": 339.3681, "ARG_OF_PERICENTER": 168.6251, "MEAN_ANOMALY": 191.4952, "EPHEMERIS_TYPE": 0, "CLASSIFICATION_TYPE": "U", "NORAD_CAT_ID": 60452, "ELEMENT_SET_NO": 999, "REV_AT_EPOCH": 7290, "BSTAR": 0.00043530855, "MEAN_MOTION_DOT": 8.189e-05, "MEAN_MOTION_DDOT": 0}, "tle": {"line1": "1 60452U 24146A   25341.28582063  .00008189  00000+0  43531-3 0  9997", "line2": "2 60452  45.0028 339.3681 0014246 168.6251 191.4952 15.15675330 72902"}}, "geometry": {"type": "Point", "coordinates": [176.03410922155894, -18.31537677813536]}}]}